NORAD_CAT_ID,OBJECT_NAME,OBJECT_TYPE,EPOCH,MEAN_MOTION,ECCENTRICITY,INCLINATION,RA_OF_ASC_NODE,ARG_OF_PERICENTER,MEAN_ANOMALY,BSTAR,MEAN_MOTION_DOT,MEAN_MOTION_DDOT,TLE_LINE0,TLE_LINE1,TLE_LINE2,SEMIMAJOR_AXIS,PERIOD,APOGEE,PERIGEE,DECAYED
51120.0,STARLINK-3398,PAYLOAD,2022-02-02 06:00:00,15.79307516,0.000101,53.2176,204.2349,82.1889,240.0468,-0.0049133999999999,-0.00821551,0.0,0 STARLINK-3398,1 51120U 22005S   22033.25001157 -.00821551  00000-0 -49134-2 0  9996,2 51120  53.2176 204.2349 0001010  82.1889 240.0468 15.79307516  3558,6710.5390000000025,91.179,333.081,331.726,0.0
51120.0,STARLINK-3398,PAYLOAD,2022-02-02 14:00:01,15.78722694,0.0001104,53.2176,202.5717,59.1749,358.9675,-0.0050574,-0.00823215,0.0,0 STARLINK-3398,1 51120U 22005S   22033.58334491 -.00823215  00000-0 -50574-2 0  9991,2 51120  53.2176 202.5717 0001104  59.1749 358.9675 15.78722694  2758,6712.196,91.213,334.802,333.32,0.0
51120.0,STARLINK-3398,PAYLOAD,2022-02-02 22:00:00,15.78129807,0.0001107,53.2172,200.9109,78.8462,74.501,-0.0051134,-0.00811374,0.0,0 STARLINK-3398,1 51120U 22005S   22033.91667824 -.00811374  00000-0 -51134-2 0  9993,2 51120  53.2172 200.9109 0001107  78.8462  74.5010 15.78129807  2801,6713.877,91.247,336.485,334.9980000000001,0.0
51120.0,STARLINK-3398,PAYLOAD,2022-02-03 06:00:00,15.77548405,0.0001142,53.2175,199.2478,71.9021,175.9439,-0.0053002,-0.00818544,0.0,0 STARLINK-3398,1 51120U 22005S   22034.25001157 -.00818544  00000-0 -53002-2 0  9994,2 51120  53.2175 199.2478 0001142  71.9021 175.9439 15.77548405  3717,6715.526,91.281,338.158,336.624,0.0
51120.0,STARLINK-3398,PAYLOAD,2022-02-03 14:00:01,15.76964487,0.000111,53.2176,197.5889,62.2733,279.3669,-0.0054663,-0.0082201,0.0,0 STARLINK-3398,1 51120U 22005S   22034.58334491 -.00822010  00000-0 -54663-2 0  9997,2 51120  53.2176 197.5889 0001110  62.2733 279.3669 15.76964487  2919,6717.184,91.315,339.7940000000001,338.30300000000005,0.0
51120.0,STARLINK-3398,PAYLOAD,2022-02-03 22:00:01,15.76376041,0.0001098,53.2174,195.9322,60.2017,14.5952,-0.0055742,-0.00816998,0.0,0 STARLINK-3398,1 51120U 22005S   22034.91668981 -.00816998  00000-0 -55742-2 0  9995,2 51120  53.2174 195.9322 0001098  60.2017  14.5952 15.76376041  2972,6718.855,91.349,341.458,339.983,0.0
51120.0,STARLINK-3398,PAYLOAD,2022-02-04 06:00:00,15.75789428,0.0001237,53.2175,194.2735,57.482,109.6377,-0.0057095,-0.00815515,0.0,0 STARLINK-3398,1 51120U 22005S   22035.25001157 -.00815515  00000-0 -57095-2 0  9996,2 51120  53.2175 194.2735 0001237  57.4820 109.6377 15.75789428  3860,6720.523,91.383,343.219,341.556,0.0
51120.0,STARLINK-3398,PAYLOAD,2022-02-04 14:00:01,15.75205383,0.0001361,53.2176,192.6193,51.7051,207.1622,-0.0058846,-0.00818849,0.0,0 STARLINK-3398,1 51120U 22005S   22035.58335648 -.00818849  00000-0 -58846-2 0  9995,2 51120  53.2176 192.6193 0001361  51.7051 207.1622 15.75205383  3075,6722.184,91.417,344.964,343.134,0.0
51120.0,STARLINK-3398,PAYLOAD,2022-02-04 22:00:00,15.74621389,0.0001028,53.2172,190.9669,67.969,281.8097,-0.0060544,-0.00820859,0.0,0 STARLINK-3398,1 51120U 22005S   22035.91667824 -.00820859  00000-0 -60544-2 0  9998,2 51120  53.2172 190.9669 0001028  67.9690 281.8097 15.74621389  3137,6723.846,91.451,346.402,345.02,0.0
51120.0,STARLINK-3398,PAYLOAD,2022-02-05 06:00:00,15.74033052,0.0001295,53.2176,189.3126,43.8592,36.1964,-0.006179,-0.00816979,0.0,0 STARLINK-3398,1 51120U 22005S   22036.25001157 -.00816979  00000-0 -61790-2 0  9999,2 51120  53.2176 189.3126 0001295  43.8592  36.1964 15.74033052  4028,6725.521,91.485,348.25699999999995,346.515,0.0
51120.0,STARLINK-3398,PAYLOAD,2022-02-05 14:00:01,15.73280932,0.0001414,53.2177,187.6624,46.3364,123.3121,-0.00086134,-0.00120208,0.0,0 STARLINK-3398,1 51120U 22005S   22036.58334491 -.00120208  00000-0 -86134-3 0  9998,2 51120  53.2177 187.6624 0001414  46.3364 123.3121 15.73280932  4070,6727.6640000000025,91.528,350.481,348.57800000000015,0.0
51120.0,STARLINK-3398,PAYLOAD,2022-02-05 22:00:01,15.73204791,0.0001256,53.2173,186.0136,59.6844,199.0009,3.3918e-06,-1.44e-06,0.0,0 STARLINK-3398,1 51120U 22005S   22036.91668981 -.00000144  00000-0  33918-5 0  9998,2 51120  53.2173 186.0136 0001256  59.6844 199.0009 15.73204791  4132,6727.882,91.533,350.592,348.901,0.0
51120.0,STARLINK-3398,PAYLOAD,2022-02-06 19:46:28,15.73199678,0.0001948,53.2228,181.5379,90.6495,269.4749,-0.0001597,-0.00022974,0.0,0 STARLINK-3398,1 51120U 22005S   22037.82394498 -.00022974  00000-0 -15970-3 0  9990,2 51120  53.2228 181.5379 0001948  90.6495 269.4749 15.73199678  4272,6727.896,91.533,351.07199999999995,348.45,0.0
51120.0,STARLINK-3398,PAYLOAD,2022-02-07 14:04:15,15.73180089,0.0001599,53.2211,177.7662,93.5231,266.5972,0.00011654,0.00015752,0.0,0 STARLINK-3398,1 51120U 22005S   22038.58628959  .00015752  00000-0  11654-3 0  9995,2 51120  53.2211 177.7662 0001599  93.5231 266.5972 15.73180089  3280,6727.9519999999975,91.534,350.89300000000014,348.741,0.0
51120.0,STARLINK-3398,PAYLOAD,2022-02-07 15:35:44,15.73196031,0.0001569,53.2197,177.4526,49.7441,310.3716,4.9114e-05,6.277e-05,0.0,0 STARLINK-3398,1 51120U 22005S   22038.64981689  .00006277  00000-0  49114-4 0  9999,2 51120  53.2197 177.4526 0001569  49.7441 310.3716 15.73196031  4405,6727.906,91.533,350.827,348.716,0.0
51120.0,STARLINK-3398,PAYLOAD,2022-02-09 11:48:39,15.73197159,0.0001444,53.218,168.3361,33.3582,326.7529,6.0315e-05,7.852e-05,0.0,0 STARLINK-3398,1 51120U 22005S   22040.49211828  .00007852  00000-0  60315-4 0  9992,2 51120  53.2180 168.3361 0001444  33.3582 326.7529 15.73197159  4696,6727.903,91.533,350.74,348.797,0.0
51120.0,STARLINK-3398,PAYLOAD,2022-02-09 13:20:07,15.73193299,0.0001438,53.2174,168.0218,48.9577,311.1568,8.4034e-05,0.00011186,0.0,0 STARLINK-3398,1 51120U 22005S   22040.55564672  .00011186  00000-0  84034-4 0  9996,2 51120  53.2174 168.0218 0001438  48.9577 311.1568 15.73193299  3596,6727.9140000000025,91.534,350.747,348.81199999999984,0.0
51120.0,STARLINK-3398,PAYLOAD,2022-02-10 13:43:49,15.73218274,0.0001814,53.2165,162.9917,30.9117,329.201,0.000127,0.00017254,0.0,0 STARLINK-3398,1 51120U 22005S   22041.57209698  .00017254  00000-0  12700-3 0  9995,2 51120  53.2165 162.9917 0001814  30.9117 329.2010 15.73218274  3755,6727.843000000003,91.532,350.92900000000014,348.48800000000006,0.0
51120.0,STARLINK-3398,PAYLOAD,2022-02-10 14:00:01,15.73240213,0.0002087,53.2162,162.9376,33.1329,30.7809,1.5738e-05,1.591e-05,0.0,0 STARLINK-3398,1 51120U 22005S   22041.58335648  .00001591  00000-0  15738-4 0  9993,2 51120  53.2162 162.9376 0002087  33.1329  30.7809 15.73240213  4865,6727.781,91.531,351.05,348.241,0.0
51120.0,STARLINK-3398,PAYLOAD,2022-02-10 22:00:00,15.73267857,0.0002094,53.2159,161.28799999999995,28.5193,124.3165,-0.00038106,-0.00053919,0.0,0 STARLINK-3398,1 51120U 22005S   22041.91667824 -.00053919  00000-0 -38106-3 0  9990,2 51120  53.2159 161.2880 0002094  28.5193 124.3165 15.73267857  3719,6727.7019999999975,91.529,350.975,348.158,0.0
51120.0,STARLINK-3398,PAYLOAD,2022-02-11 14:00:01,15.73274142,0.0002193,53.2164,157.9888,29.9389,300.9003,-0.00054338,-0.00076442,0.0,0 STARLINK-3398,1 51120U 22005S   22042.58334491 -.00076442  00000-0 -54338-3 0  9996,2 51120  53.2164 157.9888 0002193  29.9389 300.9003 15.73274142  5021,6727.684,91.529,351.024,348.0730000000001,0.0
51120.0,STARLINK-3398,PAYLOAD,2022-02-11 14:07:27,15.73258878,0.0002113,53.2165,157.9617,33.7766,326.3389,4.924e-05,6.312e-05,0.0,0 STARLINK-3398,1 51120U 22005S   22042.58851330  .00006312  00000-0  49240-4 0  9996,2 51120  53.2165 157.9617 0002113  33.7766 326.3389 15.73258878  3919,6727.727,91.53,351.014,348.171,0.0
51120.0,STARLINK-3398,PAYLOAD,2022-02-11 22:00:01,15.73237361,0.0002154,53.2163,156.3389,22.5531,37.3336,-0.00039404,-0.00055652,0.0,0 STARLINK-3398,1 51120U 22005S   22042.91668981 -.00055652  00000-0 -39404-3 0  9994,2 51120  53.2163 156.3389 0002154  22.5531  37.3336 15.73237361  3732,6727.7890000000025,91.531,351.103,348.204,0.0
51120.0,STARLINK-3398,PAYLOAD,2022-02-12 12:59:38,15.73178135,0.0001852,53.2174,153.2455,37.4988,322.6161,-7.4115e-05,-0.00010999,0.0,0 STARLINK-3398,1 51120U 22005S   22043.54141931 -.00010999  00000-0 -74115-4 0  9999,2 51120  53.2174 153.2455 0001852  37.4988 322.6161 15.73178135  5178,6727.958000000001,91.534,351.069,348.576,0.0
51120.0,STARLINK-3398,PAYLOAD,2022-02-12 22:00:00,15.73131456,0.0002233,53.2161,151.391,18.9373,307.5481,0.00015308,0.00020855,0.0,0 STARLINK-3398,1 51120U 22005S   22043.91667824  .00020855  00000-0  15308-3 0  9992,2 51120  53.2161 151.3910 0002233  18.9373 307.5481 15.73131456  5234,6728.090999999999,91.537,351.458,348.45300000000015,0.0
51120.0,STARLINK-3398,PAYLOAD,2022-02-13 14:00:01,15.7314019,0.0002478,53.2168,148.0928,25.4472,118.7775,8.8024e-05,0.00011719,0.0,0 STARLINK-3398,1 51120U 22005S   22044.58334491  .00011719  00000-0  88024-4 0  9992,2 51120  53.2168 148.0928 0002478  25.4472 118.7775 15.73140190  3722,6728.066,91.537,351.598,348.26300000000015,0.0
51120.0,STARLINK-3398,PAYLOAD,2022-02-14 06:00:00,15.73182663,0.00024,53.2169,144.7924,29.7193,292.2659,0.00052415,0.00073538,0.0,0 STARLINK-3398,1 51120U 22005S   22045.25001157  .00073538  00000-0  52415-3 0  9998,2 51120  53.2169 144.7924 0002400  29.7193 292.2659 15.73182663  5445,6727.945,91.534,351.4240000000001,348.195,0.0
51120.0,STARLINK-3398,PAYLOAD,2022-02-14 14:00:01,15.73238868,0.0002646,53.2167,143.1452,26.552,24.3728,2.1505e-05,2.402e-05,0.0,0 STARLINK-3398,1 51120U 22005S   22045.58334491  .00002402  00000-0  21505-4 0  9993,2 51120  53.2167 143.1452 0002646  26.5520  24.3728 15.73238868  3722,6727.784000000002,91.531,351.43,347.869,0.0
51120.0,STARLINK-3398,PAYLOAD,2022-02-14 20:00:01,15.73255581,0.0002606,53.2162,141.9078,23.2203,4.4281,-0.00039643,-0.00056032,0.0,0 STARLINK-3398,1 51120U 22005S   22045.83334491 -.00056032  00000-0 -39643-3 0  9992,2 51120  53.2162 141.9078 0002606  23.2203   4.4281 15.73255581  3707,6727.736999999999,91.53,351.355,347.848,0.0
